
APRIZESAT 1
1 28372U 04025G   26170.29342554  .00000178  00000+0  55677-4 0  9992
2 28372  98.6302 181.0763 0045220 147.5406 212.8584 14.51777966162213

APRIZESAT 2
1 28366U 04025A   26170.16338220  .00000123  00000+0  51583-4 0  9998
2 28366  98.1016 336.0319 0104385 243.8119 115.2306 14.38036420151923

APRIZESAT 3
1 35686U 09041F   26170.17209211  .00001577  00000+0  14014-3 0  9993
2 35686  98.2067 323.4908 0062794  61.3500 299.4015 14.96247734916670

APRIZESAT 4
1 35684U 09041D   26170.21255956  .00000473  00000+0  63238-4 0  9990
2 35684  98.1412 245.5735 0042281 316.3381  43.4490 14.83881619911662

LPNTSAT-001 (IOD-1)
1 68408U 26065A   26170.11949784  .00002049  00000+0  10218-3 0  9993
2 68408  97.4012  50.5881 0016472   4.0510 356.0854 15.18546241 12559

NANOSAT-1
1 28493U 04049B   26170.33232627  .00000765  00000+0  10808-3 0  9994
2 28493  98.2279 307.0456 0002755 292.4922  67.5997 14.80163099155767

OOV-CUBE (TUBSAT-30)
1 60240U 24128F   26170.25125463  .00001348  00000+0  11406-3 0  9993
2 60240  61.9931 218.3757 0044384 134.2215 226.2535 15.02780201106421

S-NET A
1 43188U 18014J   26170.24207808  .00003872  00000+0  20093-3 0  9991
2 43188  97.5374  75.2156 0009115  19.4309 340.7269 15.16697000459070

S-NET B
1 43187U 18014H   26170.25470483  .00003828  00000+0  19891-3 0  9997
2 43187  97.5364  75.0190 0009245  18.8200 341.3373 15.16659623459073

S-NET C
1 43189U 18014K   26170.25859131  .00003878  00000+0  20147-3 0  9991
2 43189  97.5392  75.3071 0010238  11.0428 349.1028 15.16651751457624

S-NET D
1 43186U 18014G   26170.24321138  .00003818  00000+0  19824-3 0  9992
2 43186  97.5358  75.0209 0008737  23.9681 336.1957 15.16688992459072

SALSAT
1 46495U 20068K   26169.97697596  .00005999  00000+0  21050-3 0  9998
2 46495  97.8853 173.1506 0007950 300.6759  59.3696 15.29820569315637

SAUDICOMSAT 1
1 28369U 04025D   26170.28486558  .00000280  00000+0  75331-4 0  9993
2 28369  98.5771 180.4729 0032508  19.3441 340.8981 14.55475193164433

SAUDICOMSAT 2
1 28370U 04025E   26170.26431403  .00000174  00000+0  56957-4 0  9997
2 28370  98.6640 182.5694 0054216 253.0594 106.4651 14.49982226160407

SAUDICOMSAT 3
1 31125U 07012J   26170.15615589  .00000676  00000+0  11831-3 0  9993
2 31125  98.3144 145.6229 0040144  47.1968 313.2602 14.70708674 25110

SAUDICOMSAT 4
1 31127U 07012L   26170.20432870  .00000331  00000+0  70779-4 0  9996
2 31127  98.3984 142.8159 0062101 251.7900 107.6535 14.64513844 21584

SAUDICOMSAT 5
1 31124U 07012H   26170.19908028  .00000498  00000+0  94294-4 0  9996
2 31124  98.3490 145.1186 0048546 118.5211 242.0893 14.68158530 23899

SAUDICOMSAT 6
1 31121U 07012E   26170.14267797  .00000434  00000+0  92782-4 0  9999
2 31121  98.4099 137.6954 0070948 321.6173  37.9992 14.62560326 20472

SAUDICOMSAT 7
1 31119U 07012C   26170.16022947  .00000327  00000+0  67852-4 0  9995
2 31119  98.3778 144.3323 0055432 188.9696 171.0522 14.66111718 22722
